     3.02           N: GNSS NAV DATA    R: GLONASS          RINEX VERSION / TYPE
Converto v3.5.6     IGN                 20210829 012101 UTC PGM / RUN BY / DATE
GLUT -4.6566128731E-10 0.000000000E+00      0    0          TIME SYSTEM CORR
    18    18  1929     7                                    LEAP SECONDS
                                                            END OF HEADER
R03 2021 08 28 11 15 00 4.197470843792D-05 9.094947017729D-13 5.580000000000D+05
     9.882070312500D+02-3.056360244751D+00 9.313225746155D-10 0.000000000000D+00
     1.100395361328D+04 7.303380966187D-01 0.000000000000D+00 5.000000000000D+00
     2.302844580078D+04-2.231388092041D-01-2.793967723846D-09 0.000000000000D+00
R03 2021 08 28 11 45 00 4.197750240564D-05 9.094947017729D-13 5.598000000000D+05
    -4.284087890625D+03-2.755805969238D+00 9.313225746155D-10 0.000000000000D+00
     1.267570947266D+04 1.104520797729D+00-0.000000000000D+00 5.000000000000D+00
     2.174505273438D+04-1.193819046021D+00-2.793967723846D-09 0.000000000000D+00
R03 2021 08 28 12 15 00 4.197843372822D-05 0.000000000000D+00 5.616000000000D+05
    -8.786840820313D+03-2.213368415833D+00 0.000000000000D+00 0.000000000000D+00
     1.487240136719D+04 1.299983978271D+00-0.000000000000D+00 5.000000000000D+00
     1.878532324219D+04-2.073676109314D+00-1.862645149231D-09 0.000000000000D+00
R03 2021 08 28 21 15 00 4.199426621199D-05 9.094947017729D-13 5.952600000000D+05
    -1.219260839844D+04 2.393149375916D+00-0.000000000000D+00 0.000000000000D+00
    -1.271986767578D+04 8.057250976563D-01-0.000000000000D+00 5.000000000000D+00
     1.850798144531D+04 2.129753112793D+00-1.862645149231D-09 0.000000000000D+00
R03 2021 08 28 21 45 00 4.199706017971D-05 9.094947017729D-13 5.958000000000D+05
    -7.393517089844D+03 2.899383544922D+00-0.000000000000D+00 0.000000000000D+00
    -1.151035693359D+04 5.092220306396D-01-0.000000000000D+00 5.000000000000D+00
     2.158061914063D+04 1.262210845947D+00-1.862645149231D-09 0.000000000000D+00
R03 2021 08 28 22 15 00 4.199892282486D-05 9.094947017729D-13 5.976000000000D+05
    -1.917480957031D+03 3.135882377625D+00-0.000000000000D+00 0.000000000000D+00
    -1.096423095703D+04 8.420372009277D-02-0.000000000000D+00 5.000000000000D+00
     2.299331152344D+04 2.972059249878D-01-1.862645149231D-09 0.000000000000D+00
R03 2021 08 28 22 45 00 4.200078547001D-05 9.094947017729D-13 5.994000000000D+05
     3.711906738281D+03 3.067676544189D+00-9.313225746155D-10 0.000000000000D+00
    -1.122346582031D+04-3.677186965942D-01 0.000000000000D+00 5.000000000000D+00
     2.263631591797D+04-6.914701461792D-01-2.793967723846D-09 0.000000000000D+00
R03 2021 08 28 23 15 00 4.200264811516D-05 0.000000000000D+00 6.012000000000D+05
     8.948781738281D+03 2.705346107483D+00-0.000000000000D+00 0.000000000000D+00
    -1.223998876953D+04-7.400445938110D-01 0.000000000000D+00 5.000000000000D+00
     2.053538525391D+04-1.627992630005D+00-1.862645149231D-09 0.000000000000D+00
R03 2021 08 28 23 45 00 4.200451076031D-05 0.000000000000D+00 6.030000000000D+05
     1.330668847656D+04 2.103443145752D+00-0.000000000000D+00 0.000000000000D+00
    -1.378335693359D+04-9.395895004272D-01 0.000000000000D+00 5.000000000000D+00
     1.685033789063D+04-2.440164566040D+00-1.862645149231D-09 0.000000000000D+00
R04 2021 08 27 16 15 00 1.019630581141D-04 1.818989403546D-12 4.896000000000D+05
     2.122062500000D+03 1.306457519531D-01-9.313225746155D-10 0.000000000000D+00
     2.444803613281D+04 9.585609436035D-01-0.000000000000D+00 6.000000000000D+00
     6.970657714844D+03-3.413931846619D+00-9.313225746155D-10 0.000000000000D+00
R04 2021 08 28 00 45 00 1.020124182105D-04 1.818989403546D-12 5.202000000000D+05
    -1.166634179688D+04 2.515119552612D+00-9.313225746155D-10 0.000000000000D+00
    -4.523844726563D+03-1.710842132568D+00-0.000000000000D+00 6.000000000000D+00
     2.225306005859D+04 9.710092544556D-01-1.862645149231D-09 0.000000000000D+00
R04 2021 08 28 01 15 00 1.020161435008D-04 1.818989403546D-12 5.220000000000D+05
    -7.273579589844D+03 2.322138786316D+00-9.313225746155D-10 0.000000000000D+00
    -8.017884277344D+03-2.143382072449D+00 0.000000000000D+00 6.000000000000D+00
     2.312042333984D+04-1.351642608643D-02-2.793967723846D-09 0.000000000000D+00
R04 2021 08 28 01 45 00 1.020198687911D-04 1.818989403546D-12 5.238000000000D+05
    -3.443340332031D+03 1.902484893799D+00-0.000000000000D+00 0.000000000000D+00
    -1.211312109375D+04-2.365500450134D+00 0.000000000000D+00 6.000000000000D+00
     2.220494287109D+04-9.971399307251D-01-2.793967723846D-09 0.000000000000D+00
R04 2021 08 28 02 15 00 1.020235940814D-04 1.818989403546D-12 5.256000000000D+05
    -5.076049804688D+02 1.345190048218D+00-0.000000000000D+00 0.000000000000D+00
    -1.636954345703D+04-2.315490722656D+00 9.313225746155D-10 6.000000000000D+00
     1.957677197266D+04-1.904203414917D+00-1.862645149231D-09 0.000000000000D+00
R04 2021 08 28 02 45 00 1.020319759846D-04 1.818989403546D-12 5.274000000000D+05
     1.381538574219D+03 7.582473754883D-01 0.000000000000D+00 0.000000000000D+00
    -2.027305419922D+04-1.973999977112D+00 9.313225746155D-10 6.000000000000D+00
     1.543791845703D+04-2.664793014526D+00-1.862645149231D-09 0.000000000000D+00
R04 2021 08 28 03 15 00 1.020347699523D-04 1.818989403546D-12 5.292000000000D+05
     2.269941894531D+03 2.504720687866D-01 0.000000000000D+00 0.000000000000D+00
    -2.331631591797D+04-1.367911338806D+00 9.313225746155D-10 6.000000000000D+00
     1.010702246094D+04-3.220067977905D+00-9.313225746155D-10 0.000000000000D+00
R04 2021 08 28 08 45 00 1.020664349198D-04 1.818989403546D-12 5.501100000000D+05
     2.234787109375D+04 1.506551742554D+00-9.313225746155D-10 0.000000000000D+00
     4.245369140625D+03 5.108861923218D-01 0.000000000000D+00 6.000000000000D+00
    -1.152691357422D+04 3.101678848267D+00 9.313225746155D-10 0.000000000000D+00
R04 2021 08 28 09 15 00 1.020692288876D-04 1.818989403546D-12 5.508000000000D+05
     2.443904687500D+04 7.852029800415D-01-9.313225746155D-10 0.000000000000D+00
     4.726346191406D+03 5.250930786133D-02 9.313225746155D-10 6.000000000000D+00
    -5.570146972656D+03 3.473908424377D+00 9.313225746155D-10 0.000000000000D+00
R04 2021 08 28 09 45 00 1.020729541779D-04 1.818989403546D-12 5.526000000000D+05
     2.508967431641D+04-7.689380645752D-02-0.000000000000D+00 0.000000000000D+00
     4.558794921875D+03-1.998739242554D-01 9.313225746155D-10 6.000000000000D+00
     8.174482421875D+02 3.577325820923D+00 0.000000000000D+00 0.000000000000D+00
R04 2021 08 28 10 15 00 1.020757481456D-04 1.818989403546D-12 5.544000000000D+05
     2.414468115234D+04-9.680490493774D-01-0.000000000000D+00 0.000000000000D+00
     4.153943359375D+03-2.085514068604D-01 9.313225746155D-10 6.000000000000D+00
     7.141927246094D+03 3.404298782349D+00-0.000000000000D+00 0.000000000000D+00
R04 2021 08 28 10 45 00 1.020794734359D-04 1.818989403546D-12 5.562000000000D+05
     2.165789208984D+04-1.770997047424D+00 0.000000000000D+00 0.000000000000D+00
     3.950732910156D+03 1.916313171387D-02 9.313225746155D-10 6.000000000000D+00
     1.291488818359D+04 2.968558311462D+00-9.313225746155D-10 0.000000000000D+00
R04 2021 08 28 11 15 00 1.020831987262D-04 1.818989403546D-12 5.580000000000D+05
     1.788506591797D+04-2.381667137146D+00 0.000000000000D+00 0.000000000000D+00
     4.334977539063D+03 4.324388504028D-01 0.000000000000D+00 6.000000000000D+00
     1.769110009766D+04 2.304012298584D+00-1.862645149231D-09 0.000000000000D+00
R04 2021 08 28 11 45 00 1.020869240165D-04 1.818989403546D-12 5.598000000000D+05
     1.324469775391D+04-2.725731849670D+00 0.000000000000D+00 0.000000000000D+00
     5.567912109375D+03 9.456939697266D-01 0.000000000000D+00 6.000000000000D+00
     2.110260693359D+04 1.462045669556D+00-1.862645149231D-09 0.000000000000D+00
R04 2021 08 28 12 15 00 1.020906493068D-04 1.818989403546D-12 5.616000000000D+05
     8.253116210938D+03-2.770228385925D+00 9.313225746155D-10 0.000000000000D+00
     7.736046875000D+03 1.453158378601D+00-0.000000000000D+00 6.000000000000D+00
     2.288675878906D+04 5.075254440308D-01-1.862645149231D-09 0.000000000000D+00
R04 2021 08 28 12 45 00 1.020971685648D-04 1.818989403546D-12 5.634000000000D+05
     3.444551757813D+03-2.528416633606D+00 0.000000000000D+00 0.000000000000D+00
     1.073064599609D+04 1.846777915955D+00-0.000000000000D+00 6.000000000000D+00
     2.290614648438D+04-4.861459732056D-01-2.793967723846D-09 0.000000000000D+00
R04 2021 08 28 13 15 00 1.021008938551D-04 1.818989403546D-12 5.652000000000D+05
    -7.107978515625D+02-2.057116508484D+00 0.000000000000D+00 0.000000000000D+00
     1.426028564453D+04 2.034546852112D+00-0.000000000000D+00 6.000000000000D+00
     2.115903564453D+04-1.442574501038D+00-1.862645149231D-09 0.000000000000D+00
R04 2021 08 28 13 45 00 1.021036878228D-04 1.818989403546D-12 5.670000000000D+05
    -3.877393066406D+03-1.446993827820D+00 0.000000000000D+00 0.000000000000D+00
     1.789451904297D+04 1.956268310547D+00-9.313225746155D-10 6.000000000000D+00
     1.777956933594D+04-2.288134574890D+00-1.862645149231D-09 0.000000000000D+00
R04 2021 08 28 14 15 00 1.021074131131D-04 1.818989403546D-12 5.688000000000D+05
    -5.902265625000D+03-8.073701858521D-01 0.000000000000D+00 0.000000000000D+00
     2.113161425781D+04 1.594165802002D+00-9.313225746155D-10 6.000000000000D+00
     1.302770898438D+04-2.957550048828D+00-1.862645149231D-09 0.000000000000D+00
R04 2021 08 28 22 45 00 1.021595671773D-04 1.818989403546D-12 6.009900000000D+05
    -1.460471093750D+04 2.660841941833D+00-0.000000000000D+00 0.000000000000D+00
    -7.619220214844D+03-1.844902038574D-01-0.000000000000D+00 6.000000000000D+00
     1.950254394531D+04 1.921981811523D+00-1.862645149231D-09 0.000000000000D+00
